{"type": "FeatureCollection", "features": [ {"type": "Feature", "properties": {"norad_id": 59598, "name": "GSAT0225 (GALILEO 29)", "group": "gnss", "lat": 28.285118432791773, "lon": -95.92000761301307, "alt_km": 23213.511759957048, "timestamp": "2025-12-15T10:55:21.386262+00:00", "meta": {"OBJECT_NAME": "GSAT0225 (GALILEO 29)", "OBJECT_ID": "2024-079A", "EPOCH": "2025-12-13T14:17:14.853120", "MEAN_MOTION": 1.7047497, "ECCENTRICITY": 0.00020845, "INCLINATION": 55.0023, "RA_OF_ASC_NODE": 106.2711, "ARG_OF_PERICENTER": 178.8578, "MEAN_ANOMALY": 264.3288, "EPHEMERIS_TYPE": 0, "CLASSIFICATION_TYPE": "U", "NORAD_CAT_ID": 59598, "ELEMENT_SET_NO": 999, "REV_AT_EPOCH": 1015, "BSTAR": 0, "MEAN_MOTION_DOT": -1e-08, "MEAN_MOTION_DDOT": 0}, "tle": {"line1": "1 59598U 24079A   25347.59531080 -.00000001  00000+0  00000+0 0  9990", "line2": "2 59598  55.0023 106.2711 0002084 178.8578 264.3288  1.70474970 10158"}}, "geometry": {"type": "Point", "coordinates": [-95.92000761301307, 28.285118432791773]}}, {"type": "Feature", "properties": {"norad_id": 59600, "name": "GSAT0227 (GALILEO 30)", "group": "gnss", "lat": 25.773220572859813, "lon": 125.96076416951323, "alt_km": 23217.660182933665, "timestamp": "2025-12-15T10:55:21.386273+00:00", "meta": {"OBJECT_NAME": "GSAT0227 (GALILEO 30)", "OBJECT_ID": "2024-079C", "EPOCH": "2025-12-08T22:48:42.234912", "MEAN_MOTION": 1.70474719, "ECCENTRICITY": 0.0003262, "INCLINATION": 54.9946, "RA_OF_ASC_NODE": 106.4003, "ARG_OF_PERICENTER": 114.182, "MEAN_ANOMALY": 245.816, "EPHEMERIS_TYPE": 0, "CLASSIFICATION_TYPE": "U", "NORAD_CAT_ID": 59600, "ELEMENT_SET_NO": 999, "REV_AT_EPOCH": 1012, "BSTAR": 0, "MEAN_MOTION_DOT": 9e-08, "MEAN_MOTION_DDOT": 0}, "tle": {"line1": "1 59600U 24079C   25342.95048883  .00000009  00000+0  00000+0 0  9990", "line2": "2 59600  54.9946 106.4003 0003262 114.1820 245.8160  1.70474719 10123"}}, "geometry": {"type": "Point", "coordinates": [125.96076416951323, 25.773220572859813]}}, {"type": "Feature", "properties": {"norad_id": 61182, "name": "GSAT0232 (GALILEO 32)", "group": "gnss", "lat": -36.60664543595814, "lon": 77.38511344464399, "alt_km": 23221.133936381455, "timestamp": "2025-12-15T10:55:21.386284+00:00", "meta": {"OBJECT_NAME": "GSAT0232 (GALILEO 32)", "OBJECT_ID": "2024-167A", "EPOCH": "2025-12-12T10:51:18.741600", "MEAN_MOTION": 1.70473504, "ECCENTRICITY": 0.00019431, "INCLINATION": 55.2408, "RA_OF_ASC_NODE": 226.4386, "ARG_OF_PERICENTER": 211.6313, "MEAN_ANOMALY": 332.0573, "EPHEMERIS_TYPE": 0, "CLASSIFICATION_TYPE": "U", "NORAD_CAT_ID": 61182, "ELEMENT_SET_NO": 999, "REV_AT_EPOCH": 769, "BSTAR": 0, "MEAN_MOTION_DOT": 1.6e-07, "MEAN_MOTION_DDOT": 0}, "tle": {"line1": "1 61182U 24167A   25346.45230025  .00000016  00000+0  00000+0 0  9994", "line2": "2 61182  55.2408 226.4386 0001943 211.6313 332.0573  1.70473504  7695"}}, "geometry": {"type": "Point", "coordinates": [77.38511344464399, -36.60664543595814]}}, {"type": "Feature", "properties": {"norad_id": 61183, "name": "GSAT0226 (GALILEO 31)", "group": "gnss", "lat": -17.0118621704743, "lon": -145.88616739797925, "alt_km": 23226.348086739843, "timestamp": "2025-12-15T10:55:21.386295+00:00", "meta": {"OBJECT_NAME": "GSAT0226 (GALILEO 31)", "OBJECT_ID": "2024-167B", "EPOCH": "2025-12-12T20:26:08.685024", "MEAN_MOTION": 1.70473602, "ECCENTRICITY": 8.42e-05, "INCLINATION": 55.2391, "RA_OF_ASC_NODE": 226.433, "ARG_OF_PERICENTER": 113.0334, "MEAN_ANOMALY": 68.3038, "EPHEMERIS_TYPE": 0, "CLASSIFICATION_TYPE": "U", "NORAD_CAT_ID": 61183, "ELEMENT_SET_NO": 999, "REV_AT_EPOCH": 767, "BSTAR": 0, "MEAN_MOTION_DOT": 1.9e-07, "MEAN_MOTION_DDOT": 0}, "tle": {"line1": "1 61183U 24167B   25346.85148941  .00000019  00000+0  00000+0 0  9997", "line2": "2 61183  55.2391 226.4330 0000842 113.0334  68.3038  1.70473602  7673"}}, "geometry": {"type": "Point", "coordinates": [-145.88616739797925, -17.0118621704743]}}, {"type": "Feature", "properties": {"norad_id": 61186, "name": "BEIDOU-3 M25 (C47)", "group": "gnss", "lat": 47.45815084218703, "lon": 77.9547204830798, "alt_km": 21537.621137208862, "timestamp": "2025-12-15T10:55:21.386309+00:00", "meta": {"OBJECT_NAME": "BEIDOU-3 M25 (C47)", "OBJECT_ID": "2024-168B", "EPOCH": "2025-12-13T09:51:38.613312", "MEAN_MOTION": 1.86230198, "ECCENTRICITY": 0.00054273, "INCLINATION": 54.6413, "RA_OF_ASC_NODE": 308.6962, "ARG_OF_PERICENTER": 297.8799, "MEAN_ANOMALY": 246.8955, "EPHEMERIS_TYPE": 0, "CLASSIFICATION_TYPE": "U", "NORAD_CAT_ID": 61186, "ELEMENT_SET_NO": 999, "REV_AT_EPOCH": 832, "BSTAR": 0, "MEAN_MOTION_DOT": -9.7e-07, "MEAN_MOTION_DDOT": 0}, "tle": {"line1": "1 61186U 24168B   25347.41086358 -.00000097  00000+0  00000+0 0  9994", "line2": "2 61186  54.6413 308.6962 0005427 297.8799 246.8955  1.86230198  8320"}}, "geometry": {"type": "Point", "coordinates": [77.9547204830798, 47.45815084218703]}}, {"type": "Feature", "properties": {"norad_id": 61187, "name": "BEIDOU-3 M27 (C49)", "group": "gnss", "lat": -50.150892190584315, "lon": -173.1580608955771, "alt_km": 21533.349405524794, "timestamp": "2025-12-15T10:55:21.386323+00:00", "meta": {"OBJECT_NAME": "BEIDOU-3 M27 (C49)", "OBJECT_ID": "2024-168C", "EPOCH": "2025-12-14T06:33:38.742048", "MEAN_MOTION": 1.86230381, "ECCENTRICITY": 0.00024262, "INCLINATION": 54.6359, "RA_OF_ASC_NODE": 308.6501, "ARG_OF_PERICENTER": 337.7802, "MEAN_ANOMALY": 200.2001, "EPHEMERIS_TYPE": 0, "CLASSIFICATION_TYPE": "U", "NORAD_CAT_ID": 61187, "ELEMENT_SET_NO": 999, "REV_AT_EPOCH": 581, "BSTAR": 0, "MEAN_MOTION_DOT": -9.9e-07, "MEAN_MOTION_DDOT": 0}, "tle": {"line1": "1 61187U 24168C   25348.27336507 -.00000099  00000+0  00000+0 0  9996", "line2": "2 61187  54.6359 308.6501 0002426 337.7802 200.2001  1.86230381  5815"}}, "geometry": {"type": "Point", "coordinates": [-173.1580608955771, -50.150892190584315]}}, {"type": "Feature", "properties": {"norad_id": 62339, "name": "GPS BIII-7  (PRN 01)", "group": "gnss", "lat": 45.927055298741266, "lon": 28.157022571953746, "alt_km": 20168.549864150096, "timestamp": "2025-12-15T10:55:21.386334+00:00", "meta": {"OBJECT_NAME": "GPS BIII-7  (PRN 01)", "OBJECT_ID": "2024-242A", "EPOCH": "2025-12-14T08:53:45.951936", "MEAN_MOTION": 2.00568038, "ECCENTRICITY": 0.00123465, "INCLINATION": 54.9231, "RA_OF_ASC_NODE": 341.6736, "ARG_OF_PERICENTER": 345.1042, "MEAN_ANOMALY": 13.136, "EPHEMERIS_TYPE": 0, "CLASSIFICATION_TYPE": "U", "NORAD_CAT_ID": 62339, "ELEMENT_SET_NO": 999, "REV_AT_EPOCH": 754, "BSTAR": 0, "MEAN_MOTION_DOT": -9.1e-07, "MEAN_MOTION_DDOT": 0}, "tle": {"line1": "1 62339U 24242A   25348.37067074 -.00000091  00000+0  00000+0 0  9992", "line2": "2 62339  54.9231 341.6736 0012346 345.1042  13.1360  2.00568038  7546"}}, "geometry": {"type": "Point", "coordinates": [28.157022571953746, 45.927055298741266]}}, {"type": "Feature", "properties": {"norad_id": 62850, "name": "NVS-02 (IRNSS-1K)", "group": "gnss", "lat": -4.336847867905718, "lon": 158.07680006597334, "alt_km": 33091.90883127258, "timestamp": "2025-12-15T10:55:21.386346+00:00", "meta": {"OBJECT_NAME": "NVS-02 (IRNSS-1K)", "OBJECT_ID": "2025-020A", "EPOCH": "2025-12-14T20:17:55.651200", "MEAN_MOTION": 2.17596683, "ECCENTRICITY": 0.73476678, "INCLINATION": 20.9774, "RA_OF_ASC_NODE": 326.8973, "ARG_OF_PERICENTER": 27.6007, "MEAN_ANOMALY": 357.0889, "EPHEMERIS_TYPE": 0, "CLASSIFICATION_TYPE": "U", "NORAD_CAT_ID": 62850, "ELEMENT_SET_NO": 999, "REV_AT_EPOCH": 696, "BSTAR": 0.00033726091, "MEAN_MOTION_DOT": 5.31e-06, "MEAN_MOTION_DDOT": 0}, "tle": {"line1": "1 62850U 25020A   25348.84578300  .00000531  00000+0  33726-3 0  9999", "line2": "2 62850  20.9774 326.8973 7347667  27.6007 357.0889  2.17596683  6960"}}, "geometry": {"type": "Point", "coordinates": [158.07680006597334, -4.336847867905718]}}, {"type": "Feature", "properties": {"norad_id": 62876, "name": "QZS-6 (QZSS/PRN 200)", "group": "gnss", "lat": -0.031738818955535625, "lon": -21.279036144619923, "alt_km": 35782.69183056963, "timestamp": "2025-12-15T10:55:21.386360+00:00", "meta": {"OBJECT_NAME": "QZS-6 (QZSS/PRN 200)", "OBJECT_ID": "2025-023A", "EPOCH": "2025-12-14T22:34:38.633952", "MEAN_MOTION": 1.00274112, "ECCENTRICITY": 0.0001582, "INCLINATION": 0.0371, "RA_OF_ASC_NODE": 61.6198, "ARG_OF_PERICENTER": 211.8137, "MEAN_ANOMALY": 239.5924, "EPHEMERIS_TYPE": 0, "CLASSIFICATION_TYPE": "U", "NORAD_CAT_ID": 62876, "ELEMENT_SET_NO": 999, "REV_AT_EPOCH": 311, "BSTAR": 0, "MEAN_MOTION_DOT": -2.14e-06, "MEAN_MOTION_DDOT": 0}, "tle": {"line1": "1 62876U 25023A   25348.94072493 -.00000214  00000+0  00000+0 0  9997", "line2": "2 62876   0.0371  61.6198 0001582 211.8137 239.5924  1.00274112  3119"}}, "geometry": {"type": "Point", "coordinates": [-21.279036144619923, -0.031738818955535625]}}, {"type": "Feature", "properties": {"norad_id": 63130, "name": "COSMOS 2584 (704K)", "group": "gnss", "lat": -20.180705181160786, "lon": -91.07184213683597, "alt_km": 19113.933099316204, "timestamp": "2025-12-15T10:55:21.386372+00:00", "meta": {"OBJECT_NAME": "COSMOS 2584 (704K)", "OBJECT_ID": "2025-042A", "EPOCH": "2025-12-14T06:03:59.682240", "MEAN_MOTION": 2.13103048, "ECCENTRICITY": 0.0007684, "INCLINATION": 64.9768, "RA_OF_ASC_NODE": 79.0943, "ARG_OF_PERICENTER": 217.8285, "MEAN_ANOMALY": 142.1308, "EPHEMERIS_TYPE": 0, "CLASSIFICATION_TYPE": "U", "NORAD_CAT_ID": 63130, "ELEMENT_SET_NO": 999, "REV_AT_EPOCH": 610, "BSTAR": 0, "MEAN_MOTION_DOT": -5.4e-07, "MEAN_MOTION_DDOT": 0}, "tle": {"line1": "1 63130U 25042A   25348.25277410 -.00000054  00000+0  00000+0 0  9994", "line2": "2 63130  64.9768  79.0943 0007684 217.8285 142.1308  2.13103048  6103"}}, "geometry": {"type": "Point", "coordinates": [-91.07184213683597, -20.180705181160786]}}]}